{"type": "FeatureCollection", "features": [ {"type": "Feature", "properties": {"norad_id": 40697, "name": "SENTINEL-2A", "group": "resource", "lat": -5.90430579299536, "lon": 53.31221561823197, "alt_km": 792.7618857842372, "timestamp": "2025-12-05T18:53:12.954015+00:00", "meta": {"OBJECT_NAME": "SENTINEL-2A", "OBJECT_ID": "2015-028A", "EPOCH": "2025-12-05T07:09:59.613696", "MEAN_MOTION": 14.30822881, "ECCENTRICITY": 0.00010357, "INCLINATION": 98.5701, "RA_OF_ASC_NODE": 51.9373, "ARG_OF_PERICENTER": 94.1657, "MEAN_ANOMALY": 265.9644, "EPHEMERIS_TYPE": 0, "CLASSIFICATION_TYPE": "U", "NORAD_CAT_ID": 40697, "ELEMENT_SET_NO": 999, "REV_AT_EPOCH": 54600, "BSTAR": 0.0001440291, "MEAN_MOTION_DOT": 3.34e-06, "MEAN_MOTION_DDOT": 0}, "tle": {"line1": "1 40697U 15028A   25339.29860664  .00000334  00000+0  14403-3 0  9999", "line2": "2 40697  98.5701  51.9373 0001035  94.1657 265.9644 14.30822881546005"}}, "geometry": {"type": "Point", "coordinates": [53.31221561823197, -5.90430579299536]}}, {"type": "Feature", "properties": {"norad_id": 40701, "name": "GAOFEN-8", "group": "resource", "lat": -52.76441027568137, "lon": -32.65152462071487, "alt_km": 455.9407562073584, "timestamp": "2025-12-05T18:53:12.954025+00:00", "meta": {"OBJECT_NAME": "GAOFEN-8", "OBJECT_ID": "2015-030A", "EPOCH": "2025-12-05T06:56:49.300800", "MEAN_MOTION": 15.38170969, "ECCENTRICITY": 0.00112771, "INCLINATION": 97.6905, "RA_OF_ASC_NODE": 157.0689, "ARG_OF_PERICENTER": 164.1161, "MEAN_ANOMALY": 196.0439, "EPHEMERIS_TYPE": 0, "CLASSIFICATION_TYPE": "U", "NORAD_CAT_ID": 40701, "ELEMENT_SET_NO": 999, "REV_AT_EPOCH": 58156, "BSTAR": 0.00077861995, "MEAN_MOTION_DOT": 0.00029317, "MEAN_MOTION_DDOT": 0}, "tle": {"line1": "1 40701U 15030A   25339.28945950  .00029317  00000+0  77862-3 0  9999", "line2": "2 40701  97.6905 157.0689 0011277 164.1161 196.0439 15.38170969581560"}}, "geometry": {"type": "Point", "coordinates": [-32.65152462071487, -52.76441027568137]}}, {"type": "Feature", "properties": {"norad_id": 40718, "name": "CARBONITE 1 (CBNT-1)", "group": "resource", "lat": 63.41465725063504, "lon": -3.304683989376744, "alt_km": 614.5485829822128, "timestamp": "2025-12-05T18:53:12.954035+00:00", "meta": {"OBJECT_NAME": "CARBONITE 1 (CBNT-1)", "OBJECT_ID": "2015-032D", "EPOCH": "2025-12-05T07:01:44.812992", "MEAN_MOTION": 14.82688912, "ECCENTRICITY": 0.0013927, "INCLINATION": 97.6398, "RA_OF_ASC_NODE": 160.6652, "ARG_OF_PERICENTER": 206.4999, "MEAN_ANOMALY": 153.5504, "EPHEMERIS_TYPE": 0, "CLASSIFICATION_TYPE": "U", "NORAD_CAT_ID": 40718, "ELEMENT_SET_NO": 999, "REV_AT_EPOCH": 56060, "BSTAR": 0.00055395616, "MEAN_MOTION_DOT": 4.426e-05, "MEAN_MOTION_DDOT": 0}, "tle": {"line1": "1 40718U 15032D   25339.29287978  .00004426  00000+0  55396-3 0  9991", "line2": "2 40718  97.6398 160.6652 0013927 206.4999 153.5504 14.82688912560600"}}, "geometry": {"type": "Point", "coordinates": [-3.304683989376744, 63.41465725063504]}}, {"type": "Feature", "properties": {"norad_id": 40878, "name": "YAOGAN-27", "group": "resource", "lat": 18.303498004521973, "lon": -33.65841981032617, "alt_km": 1198.361354529683, "timestamp": "2025-12-05T18:53:12.954045+00:00", "meta": {"OBJECT_NAME": "YAOGAN-27", "OBJECT_ID": "2015-040A", "EPOCH": "2025-12-05T06:01:16.214304", "MEAN_MOTION": 13.16059777, "ECCENTRICITY": 0.00077096, "INCLINATION": 100.1005, "RA_OF_ASC_NODE": 329.2099, "ARG_OF_PERICENTER": 305.1343, "MEAN_ANOMALY": 54.9048, "EPHEMERIS_TYPE": 0, "CLASSIFICATION_TYPE": "U", "NORAD_CAT_ID": 40878, "ELEMENT_SET_NO": 999, "REV_AT_EPOCH": 49215, "BSTAR": 0.00012368024, "MEAN_MOTION_DOT": 5e-08, "MEAN_MOTION_DDOT": 0}, "tle": {"line1": "1 40878U 15040A   25339.25088211  .00000005  00000+0  12368-3 0  9993", "line2": "2 40878 100.1005 329.2099 0007709 305.1343  54.9048 13.16059777492159"}}, "geometry": {"type": "Point", "coordinates": [-33.65841981032617, 18.303498004521973]}}, {"type": "Feature", "properties": {"norad_id": 40894, "name": "GAOFEN-9 01", "group": "resource", "lat": 43.55387546083774, "lon": 11.69611291180253, "alt_km": 598.3921508853773, "timestamp": "2025-12-05T18:53:12.954074+00:00", "meta": {"OBJECT_NAME": "GAOFEN-9 01", "OBJECT_ID": "2015-047A", "EPOCH": "2025-12-05T07:20:59.528256", "MEAN_MOTION": 14.82393062, "ECCENTRICITY": 0.0028871, "INCLINATION": 97.6551, "RA_OF_ASC_NODE": 18.5829, "ARG_OF_PERICENTER": 57.7977, "MEAN_ANOMALY": 302.6031, "EPHEMERIS_TYPE": 0, "CLASSIFICATION_TYPE": "U", "NORAD_CAT_ID": 40894, "ELEMENT_SET_NO": 999, "REV_AT_EPOCH": 55146, "BSTAR": 0.0003029481, "MEAN_MOTION_DOT": 2.393e-05, "MEAN_MOTION_DDOT": 0}, "tle": {"line1": "1 40894U 15047A   25339.30624454  .00002393  00000+0  30295-3 0  9990", "line2": "2 40894  97.6551  18.5829 0028871  57.7977 302.6031 14.82393062551465"}}, "geometry": {"type": "Point", "coordinates": [11.69611291180253, 43.55387546083774]}}, {"type": "Feature", "properties": {"norad_id": 41026, "name": "YAOGAN-28", "group": "resource", "lat": -49.3908444259985, "lon": -70.79855083837101, "alt_km": 498.87223064941554, "timestamp": "2025-12-05T18:53:12.954088+00:00", "meta": {"OBJECT_NAME": "YAOGAN-28", "OBJECT_ID": "2015-064A", "EPOCH": "2025-12-05T08:25:42.553344", "MEAN_MOTION": 15.2415977, "ECCENTRICITY": 0.00120312, "INCLINATION": 97.2803, "RA_OF_ASC_NODE": 117.3535, "ARG_OF_PERICENTER": 150.5937, "MEAN_ANOMALY": 209.598, "EPHEMERIS_TYPE": 0, "CLASSIFICATION_TYPE": "U", "NORAD_CAT_ID": 41026, "ELEMENT_SET_NO": 999, "REV_AT_EPOCH": 56112, "BSTAR": 0.00063693762, "MEAN_MOTION_DOT": 0.0001548, "MEAN_MOTION_DDOT": 0}, "tle": {"line1": "1 41026U 15064A   25339.35118696  .00015480  00000+0  63694-3 0  9998", "line2": "2 41026  97.2803 117.3535 0012031 150.5937 209.5980 15.24159770561125"}}, "geometry": {"type": "Point", "coordinates": [-70.79855083837101, -49.3908444259985]}}, {"type": "Feature", "properties": {"norad_id": 41038, "name": "YAOGAN-29", "group": "resource", "lat": -77.13059130676316, "lon": 41.056821828315016, "alt_km": 627.5261442110532, "timestamp": "2025-12-05T18:53:12.954099+00:00", "meta": {"OBJECT_NAME": "YAOGAN-29", "OBJECT_ID": "2015-069A", "EPOCH": "2025-12-05T07:54:37.922976", "MEAN_MOTION": 14.82870076, "ECCENTRICITY": 6.147e-05, "INCLINATION": 98.0226, "RA_OF_ASC_NODE": 2.4773, "ARG_OF_PERICENTER": 0.4437, "MEAN_ANOMALY": 359.6777, "EPHEMERIS_TYPE": 0, "CLASSIFICATION_TYPE": "U", "NORAD_CAT_ID": 41038, "ELEMENT_SET_NO": 999, "REV_AT_EPOCH": 54189, "BSTAR": 0.00012497488, "MEAN_MOTION_DOT": 9.58e-06, "MEAN_MOTION_DDOT": 0}, "tle": {"line1": "1 41038U 15069A   25339.32960559  .00000958  00000+0  12497-3 0  9995", "line2": "2 41038  98.0226   2.4773 0000614   0.4437 359.6777 14.82870076541891"}}, "geometry": {"type": "Point", "coordinates": [41.056821828315016, -77.13059130676316]}}, {"type": "Feature", "properties": {"norad_id": 41167, "name": "KENT RIDGE 1", "group": "resource", "lat": 6.657466485908034, "lon": 56.85599535323243, "alt_km": 500.5516455944053, "timestamp": "2025-12-05T18:53:12.954109+00:00", "meta": {"OBJECT_NAME": "KENT RIDGE 1", "OBJECT_ID": "2015-077B", "EPOCH": "2025-12-05T00:54:40.679712", "MEAN_MOTION": 15.21542687, "ECCENTRICITY": 0.00086345, "INCLINATION": 14.9802, "RA_OF_ASC_NODE": 268.2874, "ARG_OF_PERICENTER": 21.5668, "MEAN_ANOMALY": 338.5016, "EPHEMERIS_TYPE": 0, "CLASSIFICATION_TYPE": "U", "NORAD_CAT_ID": 41167, "ELEMENT_SET_NO": 999, "REV_AT_EPOCH": 55146, "BSTAR": 0.00033434694, "MEAN_MOTION_DOT": 8.534e-05, "MEAN_MOTION_DDOT": 0}, "tle": {"line1": "1 41167U 15077B   25339.03797083  .00008534  00000+0  33435-3 0  9998", "line2": "2 41167  14.9802 268.2874 0008634  21.5668 338.5016 15.21542687551469"}}, "geometry": {"type": "Point", "coordinates": [56.85599535323243, 6.657466485908034]}}, {"type": "Feature", "properties": {"norad_id": 41194, "name": "GAOFEN-4", "group": "resource", "lat": 0.07869403622492244, "lon": 103.7845807914528, "alt_km": 35783.968074724355, "timestamp": "2025-12-05T18:53:12.954122+00:00", "meta": {"OBJECT_NAME": "GAOFEN-4", "OBJECT_ID": "2015-083A", "EPOCH": "2025-12-05T07:21:04.974912", "MEAN_MOTION": 1.00272673, "ECCENTRICITY": 0.00036632, "INCLINATION": 0.1503, "RA_OF_ASC_NODE": 80.8866, "ARG_OF_PERICENTER": 105.4934, "MEAN_ANOMALY": 103.9528, "EPHEMERIS_TYPE": 0, "CLASSIFICATION_TYPE": "U", "NORAD_CAT_ID": 41194, "ELEMENT_SET_NO": 999, "REV_AT_EPOCH": 3658, "BSTAR": 0, "MEAN_MOTION_DOT": -3.23e-06, "MEAN_MOTION_DDOT": 0}, "tle": {"line1": "1 41194U 15083A   25339.30630758 -.00000323  00000+0  00000+0 0  9997", "line2": "2 41194   0.1503  80.8866 0003663 105.4934 103.9528  1.00272673 36588"}}, "geometry": {"type": "Point", "coordinates": [103.7845807914528, 0.07869403622492244]}}, {"type": "Feature", "properties": {"norad_id": 41240, "name": "JASON-3", "group": "resource", "lat": 48.187907063268305, "lon": -37.36675543870739, "alt_km": 1310.1979955293327, "timestamp": "2025-12-05T18:53:12.954132+00:00", "meta": {"OBJECT_NAME": "JASON-3", "OBJECT_ID": "2016-002A", "EPOCH": "2025-12-05T07:03:12.862368", "MEAN_MOTION": 12.87626193, "ECCENTRICITY": 0.00071347, "INCLINATION": 66.0392, "RA_OF_ASC_NODE": 173.4787, "ARG_OF_PERICENTER": 270.3906, "MEAN_ANOMALY": 89.6295, "EPHEMERIS_TYPE": 0, "CLASSIFICATION_TYPE": "U", "NORAD_CAT_ID": 41240, "ELEMENT_SET_NO": 999, "REV_AT_EPOCH": 46228, "BSTAR": 0.00020849834, "MEAN_MOTION_DOT": -9e-08, "MEAN_MOTION_DDOT": 0}, "tle": {"line1": "1 41240U 16002A   25339.29389887 -.00000009  00000+0  20850-3 0  9993", "line2": "2 41240  66.0392 173.4787 0007134 270.3906  89.6295 12.87626193462284"}}, "geometry": {"type": "Point", "coordinates": [-37.36675543870739, 48.187907063268305]}}]}